{"type": "FeatureCollection", "features": [ {"type": "Feature", "properties": {"norad_id": 45344, "name": "BEIDOU-3 G2 (C60)", "group": "gnss", "lat": 2.225035240251098, "lon": 161.80989462197408, "alt_km": 35789.53309650228, "timestamp": "2025-12-18T23:35:49.302326+00:00", "meta": {"OBJECT_NAME": "BEIDOU-3 G2 (C60)", "OBJECT_ID": "2020-017A", "EPOCH": "2025-12-18T15:23:14.653248", "MEAN_MOTION": 1.00273352, "ECCENTRICITY": 0.0002097, "INCLINATION": 2.5076, "RA_OF_ASC_NODE": 44.073, "ARG_OF_PERICENTER": 235.8561, "MEAN_ANOMALY": 118.4037, "EPHEMERIS_TYPE": 0, "CLASSIFICATION_TYPE": "U", "NORAD_CAT_ID": 45344, "ELEMENT_SET_NO": 999, "REV_AT_EPOCH": 2144, "BSTAR": 0, "MEAN_MOTION_DOT": -1.18e-06, "MEAN_MOTION_DDOT": 0}, "tle": {"line1": "1 45344U 20017A   25352.64114182 -.00000118  00000+0  00000+0 0  9993", "line2": "2 45344   2.5076  44.0730 0002097 235.8561 118.4037  1.00273352 21446"}}, "geometry": {"type": "Point", "coordinates": [161.80989462197408, 2.225035240251098]}}, {"type": "Feature", "properties": {"norad_id": 45358, "name": "COSMOS 2545 (760)", "group": "gnss", "lat": -31.046639490805152, "lon": -57.98318505614692, "alt_km": 19126.60788453884, "timestamp": "2025-12-18T23:35:49.302343+00:00", "meta": {"OBJECT_NAME": "COSMOS 2545 (760)", "OBJECT_ID": "2020-018A", "EPOCH": "2025-12-18T13:25:32.437344", "MEAN_MOTION": 2.13102587, "ECCENTRICITY": 0.0011599, "INCLINATION": 64.4659, "RA_OF_ASC_NODE": 318.7651, "ARG_OF_PERICENTER": 249.5065, "MEAN_ANOMALY": 110.3601, "EPHEMERIS_TYPE": 0, "CLASSIFICATION_TYPE": "U", "NORAD_CAT_ID": 45358, "ELEMENT_SET_NO": 999, "REV_AT_EPOCH": 4481, "BSTAR": 0, "MEAN_MOTION_DOT": -6.4e-07, "MEAN_MOTION_DDOT": 0}, "tle": {"line1": "1 45358U 20018A   25352.55940321 -.00000064  00000+0  00000+0 0  9991", "line2": "2 45358  64.4659 318.7651 0011599 249.5065 110.3601  2.13102587 44816"}}, "geometry": {"type": "Point", "coordinates": [-57.98318505614692, -31.046639490805152]}}, {"type": "Feature", "properties": {"norad_id": 45807, "name": "BEIDOU-3 G3 (C61)", "group": "gnss", "lat": 1.6188775718068131, "lon": -167.611950857705, "alt_km": 35812.91382981688, "timestamp": "2025-12-18T23:35:49.302362+00:00", "meta": {"OBJECT_NAME": "BEIDOU-3 G3 (C61)", "OBJECT_ID": "2020-040A", "EPOCH": "2025-12-18T15:53:28.851072", "MEAN_MOTION": 1.00271392, "ECCENTRICITY": 0.0006414, "INCLINATION": 2.0051, "RA_OF_ASC_NODE": 66.6361, "ARG_OF_PERICENTER": 309.2378, "MEAN_ANOMALY": 60.5993, "EPHEMERIS_TYPE": 0, "CLASSIFICATION_TYPE": "U", "NORAD_CAT_ID": 45807, "ELEMENT_SET_NO": 999, "REV_AT_EPOCH": 2026, "BSTAR": 0, "MEAN_MOTION_DOT": -3.3e-06, "MEAN_MOTION_DDOT": 0}, "tle": {"line1": "1 45807U 20040A   25352.66213948 -.00000330  00000+0  00000+0 0  9991", "line2": "2 45807   2.0051  66.6361 0006414 309.2378  60.5993  1.00271392 20266"}}, "geometry": {"type": "Point", "coordinates": [-167.611950857705, 1.6188775718068131]}}, {"type": "Feature", "properties": {"norad_id": 45854, "name": "GPS BIII-3  (PRN 23)", "group": "gnss", "lat": 6.569284905440147, "lon": -148.399625488803, "alt_km": 20044.3848981736, "timestamp": "2025-12-18T23:35:49.302441+00:00", "meta": {"OBJECT_NAME": "GPS BIII-3  (PRN 23)", "OBJECT_ID": "2020-041A", "EPOCH": "2025-12-18T05:27:58.178880", "MEAN_MOTION": 2.00562003, "ECCENTRICITY": 0.0060605, "INCLINATION": 56.5506, "RA_OF_ASC_NODE": 35.9719, "ARG_OF_PERICENTER": 203.6022, "MEAN_ANOMALY": 143.4254, "EPHEMERIS_TYPE": 0, "CLASSIFICATION_TYPE": "U", "NORAD_CAT_ID": 45854, "ELEMENT_SET_NO": 999, "REV_AT_EPOCH": 4040, "BSTAR": 0, "MEAN_MOTION_DOT": -7e-07, "MEAN_MOTION_DDOT": 0}, "tle": {"line1": "1 45854U 20041A   25352.22775670 -.00000070  00000+0  00000+0 0  9992", "line2": "2 45854  56.5506  35.9719 0060605 203.6022 143.4254  2.00562003 40400"}}, "geometry": {"type": "Point", "coordinates": [-148.399625488803, 6.569284905440147]}}, {"type": "Feature", "properties": {"norad_id": 46114, "name": "GALAXY 30 (WAAS/PRN 135)", "group": "gnss", "lat": -0.017327876554920362, "lon": -43.191053966341805, "alt_km": 35779.85608607164, "timestamp": "2025-12-18T23:35:49.302454+00:00", "meta": {"OBJECT_NAME": "GALAXY 30 (WAAS/PRN 135)", "OBJECT_ID": "2020-056C", "EPOCH": "2025-12-18T14:24:42.759360", "MEAN_MOTION": 1.00272839, "ECCENTRICITY": 0.00020166, "INCLINATION": 0.0022, "RA_OF_ASC_NODE": 357.0524, "ARG_OF_PERICENTER": 273.5592, "MEAN_ANOMALY": 268.0359, "EPHEMERIS_TYPE": 0, "CLASSIFICATION_TYPE": "U", "NORAD_CAT_ID": 46114, "ELEMENT_SET_NO": 999, "REV_AT_EPOCH": 1948, "BSTAR": 0, "MEAN_MOTION_DOT": 6.2e-07, "MEAN_MOTION_DDOT": 0}, "tle": {"line1": "1 46114U 20056C   25352.60049490  .00000062  00000+0  00000+0 0  9994", "line2": "2 46114   0.0022 357.0524 0002016 273.5592 268.0359  1.00272839 19487"}}, "geometry": {"type": "Point", "coordinates": [-43.191053966341805, -0.017327876554920362]}}, {"type": "Feature", "properties": {"norad_id": 46805, "name": "COSMOS 2547 (705K)", "group": "gnss", "lat": -0.6629422119525014, "lon": 18.807354570208616, "alt_km": 19120.061212197226, "timestamp": "2025-12-18T23:35:49.302470+00:00", "meta": {"OBJECT_NAME": "COSMOS 2547 (705K)", "OBJECT_ID": "2020-075A", "EPOCH": "2025-12-17T08:09:16.456320", "MEAN_MOTION": 2.1310013, "ECCENTRICITY": 0.0006169, "INCLINATION": 64.5962, "RA_OF_ASC_NODE": 198.5429, "ARG_OF_PERICENTER": 228.3795, "MEAN_ANOMALY": 131.6499, "EPHEMERIS_TYPE": 0, "CLASSIFICATION_TYPE": "U", "NORAD_CAT_ID": 46805, "ELEMENT_SET_NO": 999, "REV_AT_EPOCH": 4003, "BSTAR": 0, "MEAN_MOTION_DOT": 1.12e-06, "MEAN_MOTION_DDOT": 0}, "tle": {"line1": "1 46805U 20075A   25351.33977380  .00000112  00000+0  00000+0 0  9995", "line2": "2 46805  64.5962 198.5429 0006169 228.3795 131.6499  2.13100130 40034"}}, "geometry": {"type": "Point", "coordinates": [18.807354570208616, -0.6629422119525014]}}, {"type": "Feature", "properties": {"norad_id": 46826, "name": "GPS BIII-4  (PRN 14)", "group": "gnss", "lat": 29.177155459828924, "lon": 14.17376201331709, "alt_km": 20092.909470892162, "timestamp": "2025-12-18T23:35:49.302481+00:00", "meta": {"OBJECT_NAME": "GPS BIII-4  (PRN 14)", "OBJECT_ID": "2020-078A", "EPOCH": "2025-12-16T01:06:13.902336", "MEAN_MOTION": 2.00566891, "ECCENTRICITY": 0.00647554, "INCLINATION": 54.0145, "RA_OF_ASC_NODE": 218.2068, "ARG_OF_PERICENTER": 203.3828, "MEAN_ANOMALY": 339.3936, "EPHEMERIS_TYPE": 0, "CLASSIFICATION_TYPE": "U", "NORAD_CAT_ID": 46826, "ELEMENT_SET_NO": 999, "REV_AT_EPOCH": 3783, "BSTAR": 0, "MEAN_MOTION_DOT": 6.7e-07, "MEAN_MOTION_DDOT": 0}, "tle": {"line1": "1 46826U 20078A   25350.04599424  .00000067  00000+0  00000+0 0  9996", "line2": "2 46826  54.0145 218.2068 0064755 203.3828 339.3936  2.00566891 37831"}}, "geometry": {"type": "Point", "coordinates": [14.17376201331709, 29.177155459828924]}}, {"type": "Feature", "properties": {"norad_id": 48859, "name": "GPS BIII-5  (PRN 11)", "group": "gnss", "lat": -25.091120964804876, "lon": -39.27114436606448, "alt_km": 20192.15259222159, "timestamp": "2025-12-18T23:35:49.302493+00:00", "meta": {"OBJECT_NAME": "GPS BIII-5  (PRN 11)", "OBJECT_ID": "2021-054A", "EPOCH": "2025-12-08T04:14:32.423424", "MEAN_MOTION": 2.00553627, "ECCENTRICITY": 0.0024678, "INCLINATION": 55.2581, "RA_OF_ASC_NODE": 340.1367, "ARG_OF_PERICENTER": 233.3994, "MEAN_ANOMALY": 212.8593, "EPHEMERIS_TYPE": 0, "CLASSIFICATION_TYPE": "U", "NORAD_CAT_ID": 48859, "ELEMENT_SET_NO": 999, "REV_AT_EPOCH": 3292, "BSTAR": 0, "MEAN_MOTION_DOT": -8.6e-07, "MEAN_MOTION_DDOT": 0}, "tle": {"line1": "1 48859U 21054A   25342.17676416 -.00000086  00000+0  00000+0 0  9993", "line2": "2 48859  55.2581 340.1367 0024678 233.3994 212.8593  2.00553627 32922"}}, "geometry": {"type": "Point", "coordinates": [-39.27114436606448, -25.091120964804876]}}, {"type": "Feature", "properties": {"norad_id": 49336, "name": "QZS-1R (QZSS/PRN 196)", "group": "gnss", "lat": 28.177756373310473, "lon": -142.7913497707206, "alt_km": 38225.99460565735, "timestamp": "2025-12-18T23:35:49.302505+00:00", "meta": {"OBJECT_NAME": "QZS-1R (QZSS/PRN 196)", "OBJECT_ID": "2021-096A", "EPOCH": "2025-12-18T14:04:25.772160", "MEAN_MOTION": 1.00255833, "ECCENTRICITY": 0.07566602, "INCLINATION": 37.0895, "RA_OF_ASC_NODE": 82.273, "ARG_OF_PERICENTER": 271.433, "MEAN_ANOMALY": 79.2664, "EPHEMERIS_TYPE": 0, "CLASSIFICATION_TYPE": "U", "NORAD_CAT_ID": 49336, "ELEMENT_SET_NO": 999, "REV_AT_EPOCH": 1519, "BSTAR": 0, "MEAN_MOTION_DOT": -2.72e-06, "MEAN_MOTION_DDOT": 0}, "tle": {"line1": "1 49336U 21096A   25352.58640940 -.00000272  00000+0  00000+0 0  9996", "line2": "2 49336  37.0895  82.2730 0756660 271.4330  79.2664  1.00255833 15198"}}, "geometry": {"type": "Point", "coordinates": [-142.7913497707206, 28.177756373310473]}}, {"type": "Feature", "properties": {"norad_id": 49809, "name": "GSAT0223 (GALILEO 27)", "group": "gnss", "lat": 36.322893646427154, "lon": 14.823441693010563, "alt_km": 23228.994079007076, "timestamp": "2025-12-18T23:35:49.302521+00:00", "meta": {"OBJECT_NAME": "GSAT0223 (GALILEO 27)", "OBJECT_ID": "2021-116A", "EPOCH": "2025-12-16T20:22:21.643104", "MEAN_MOTION": 1.70476101, "ECCENTRICITY": 0.00044272, "INCLINATION": 57.2185, "RA_OF_ASC_NODE": 346.6017, "ARG_OF_PERICENTER": 254.1798, "MEAN_ANOMALY": 280.7094, "EPHEMERIS_TYPE": 0, "CLASSIFICATION_TYPE": "U", "NORAD_CAT_ID": 49809, "ELEMENT_SET_NO": 999, "REV_AT_EPOCH": 2507, "BSTAR": 0, "MEAN_MOTION_DOT": -7.9e-07, "MEAN_MOTION_DDOT": 0}, "tle": {"line1": "1 49809U 21116A   25350.84886161 -.00000079  00000+0  00000+0 0  9993", "line2": "2 49809  57.2185 346.6017 0004427 254.1798 280.7094  1.70476101 25071"}}, "geometry": {"type": "Point", "coordinates": [14.823441693010563, 36.322893646427154]}}]}